
# Worst residual: 22.37 km
# MJD 60847.000000 (2025 Jun 21  0:00)
2025-010D = NORAD 62719 = Falcon 9-427 Stage 2
1 62719U 25010D   25172.49919926  .00000000  00000-0  00000-0 2 27306
2 62719 014.1595 029.8606 5319191 029.8845 227.9421 00.03132941    08

# Worst residual: 25.93 km
# MJD 60848.000000 (2025 Jun 22  0:00)
2025-010D = NORAD 62719 = Falcon 9-427 Stage 2
1 62719U 25010D   25173.49919926  .00000000  00000-0  00000-0 2 27307
2 62719 014.2851 030.4605 5307889 029.8127 237.8951 00.03145870    08

# Worst residual: 27.42 km
# MJD 60849.000000 (2025 Jun 23  0:00)
2025-010D = NORAD 62719 = Falcon 9-427 Stage 2
1 62719U 25010D   25174.49919926  .00000000  00000-0  00000-0 2 27308
2 62719 014.3968 031.0765 5292446 029.7491 247.8560 00.03162131    03

# Worst residual: 27.78 km
# MJD 60850.000000 (2025 Jun 24  0:00)
2025-010D = NORAD 62719 = Falcon 9-427 Stage 2
1 62719U 25010D   25175.49919926  .00000000  00000-0  00000-0 2 27309
2 62719 014.4896 031.6795 5271368 029.6874 257.9023 00.03180893    08

# Worst residual: 27.05 km
# MJD 60851.000000 (2025 Jun 25  0:00)
2025-010D = NORAD 62719 = Falcon 9-427 Stage 2
1 62719U 25010D   25176.49919926  .00000000  00000-0  00000-0 2 27300
2 62719 014.5597 032.2367 5245760 029.6400 268.0966 00.03201947    04

# Worst residual: 25.14 km
# MJD 60852.000000 (2025 Jun 26  0:00)
2025-010D = NORAD 62719 = Falcon 9-427 Stage 2
1 62719U 25010D   25177.49919926  .00000000  00000-0  00000-0 2 27301
2 62719 014.6061 032.7192 5217356 029.6221 278.4914 00.03225066    09

# Worst residual: 22.20 km
# MJD 60853.000000 (2025 Jun 27  0:00)
2025-010D = NORAD 62719 = Falcon 9-427 Stage 2
1 62719U 25010D   25178.49919926  .00000000  00000-0  00000-0 2 27302
2 62719 014.6308 033.1061 5188084 029.6491 289.1264 00.03249950    02

# Worst residual: 18.49 km
# MJD 60854.000000 (2025 Jun 28  0:00)
2025-010D = NORAD 62719 = Falcon 9-427 Stage 2
1 62719U 25010D   25179.49919926  .00000000  00000-0  00000-0 2 27303
2 62719 014.6386 033.3869 5159638 029.7307 300.0277 00.03276087    04

# Worst residual: 14.25 km
# MJD 60855.000000 (2025 Jun 29  0:00)
2025-010D = NORAD 62719 = Falcon 9-427 Stage 2
1 62719U 25010D   25180.49919926  .00000000  00000-0  00000-0 2 27305
2 62719 014.6360 033.5615 5133243 029.8645 311.2104 00.03302496    04

# Worst residual: 9.71 km
# MJD 60856.000000 (2025 Jun 30  0:00)
2025-010D = NORAD 62719 = Falcon 9-427 Stage 2
1 62719U 25010D   25181.49919926  .00000000  00000-0  00000-0 2 27306
2 62719 014.6303 033.6419 5109836 030.0269 322.6804 00.03327330    08

# Worst residual: 5.53 km
# MJD 60857.000000 (2025 Jul  1  0:00)
2025-010D = NORAD 62719 = Falcon 9-427 Stage 2
1 62719U 25010D   25182.49919926  .00000000  00000-0  00000-0 2 27307
2 62719 014.6289 033.6527 5090850 030.1667 334.4295 00.03347448    06

# Worst residual: 4.24 km
# MJD 60858.000000 (2025 Jul  2  0:00)
2025-010D = NORAD 62719 = Falcon 9-427 Stage 2
1 62719U 25010D   25183.49919926  .00000000  00000-0  00000-0 2 27308
2 62719 014.6371 033.6340 5079039 030.2175 346.4130 00.03358875    09

# Worst residual: 3.77 km
# MJD 60859.000000 (2025 Jul  3  0:00)
2025-010D = NORAD 62719 = Falcon 9-427 Stage 2
1 62719U 25010D   25184.49919926  .00000000  00000-0  00000-0 2 27309
2 62719 014.6541 033.6378 5075214 030.1467 358.5204 00.03361774    01

# Worst residual: 5.95 km
# MJD 60860.000000 (2025 Jul  4  0:00)
2025-010D = NORAD 62719 = Falcon 9-427 Stage 2
1 62719U 25010D   25185.49919926  .00000000  00000-0  00000-0 2 27300
2 62719 014.6698 033.6987 5070073 029.9513 010.6814 00.03368072    07

# Worst residual: 7.51 km
# MJD 60861.000000 (2025 Jul  5  0:00)
2025-010D = NORAD 62719 = Falcon 9-427 Stage 2
1 62719U 25010D   25186.49919926  .00000000  00000-0  00000-0 2 27301
2 62719 014.6735 033.8006 5056185 029.5904 023.0171 00.03388042    04

# Worst residual: 10.44 km
# MJD 60862.000000 (2025 Jul  6  0:00)
2025-010D = NORAD 62719 = Falcon 9-427 Stage 2
1 62719U 25010D   25187.49919926  .00000000  00000-0  00000-0 2 27302
2 62719 014.6640 033.9092 5038119 029.0779 035.6505 00.03418574    01

# Worst residual: 12.45 km
# MJD 60863.000000 (2025 Jul  7  0:00)
2025-010D = NORAD 62719 = Falcon 9-427 Stage 2
1 62719U 25010D   25188.49919926  .00000000  00000-0  00000-0 2 27303
2 62719 014.6441 034.0095 5021515 028.4652 048.6066 00.03453651    01

# Worst residual: 12.79 km
# MJD 60864.000000 (2025 Jul  8  0:00)
2025-010D = NORAD 62719 = Falcon 9-427 Stage 2
1 62719U 25010D   25189.49919926  .00000000  00000-0  00000-0 2 27304
2 62719 014.6154 034.0981 5010052 027.8020 061.8464 00.03488833    01

# Worst residual: 13.28 km
# MJD 60865.000000 (2025 Jul  9  0:00)
2025-010D = NORAD 62719 = Falcon 9-427 Stage 2
1 62719U 25010D   25190.49919926  .00000000  00000-0  00000-0 2 27306
2 62719 014.5801 034.1697 5005552 027.1435 075.2913 00.03521168    03

# Worst residual: 13.53 km
# MJD 60866.000000 (2025 Jul 10  0:00)
2025-010D = NORAD 62719 = Falcon 9-427 Stage 2
1 62719U 25010D   25191.49919926  .00000000  00000-0  00000-0 2 27307
2 62719 014.5429 034.2186 5007983 026.5429 088.8485 00.03548954    05

# Worst residual: 12.79 km
# MJD 60867.000000 (2025 Jul 11  0:00)
2025-010D = NORAD 62719 = Falcon 9-427 Stage 2
1 62719U 25010D   25192.49919926  .00000000  00000-0  00000-0 2 27308
2 62719 014.5102 034.2434 5015958 026.0385 102.4306 00.03571458    06

# Worst residual: 11.09 km
# MJD 60868.000000 (2025 Jul 12  0:00)
2025-010D = NORAD 62719 = Falcon 9-427 Stage 2
1 62719U 25010D   25193.49919926  .00000000  00000-0  00000-0 2 27309
2 62719 014.4889 034.2497 5027352 025.6489 115.9634 00.03588579    02

# Worst residual: 8.53 km
# MJD 60869.000000 (2025 Jul 13  0:00)
2025-010D = NORAD 62719 = Falcon 9-427 Stage 2
1 62719U 25010D   25194.49919926  .00000000  00000-0  00000-0 2 27300
2 62719 014.4853 034.2497 5039721 025.3746 129.3881 00.03600585    04

# Worst residual: 5.27 km
# MJD 60870.000000 (2025 Jul 14  0:00)
2025-010D = NORAD 62719 = Falcon 9-427 Stage 2
1 62719U 25010D   25195.49919926  .00000000  00000-0  00000-0 2 27301
2 62719 014.5033 034.2601 5050535 025.2020 142.6618 00.03607945    05

# Worst residual: 2.70 km
# MJD 60871.000000 (2025 Jul 15  0:00)
2025-010D = NORAD 62719 = Falcon 9-427 Stage 2
1 62719U 25010D   25196.49919926  .00000000  00000-0  00000-0 2 27302
2 62719 014.5448 034.2988 5057345 025.1077 155.7572 00.03611228    03

# Worst residual: 4.75 km
# MJD 60872.000000 (2025 Jul 16  0:00)
2025-010D = NORAD 62719 = Falcon 9-427 Stage 2
1 62719U 25010D   25197.49919926  .00000000  00000-0  00000-0 2 27303
2 62719 014.6089 034.3823 5057596 025.0629 168.6618 00.03610924    00

# Worst residual: 7.24 km
# MJD 60873.000000 (2025 Jul 17  0:00)
2025-010D = NORAD 62719 = Falcon 9-427 Stage 2
1 62719U 25010D   25198.49919926  .00000000  00000-0  00000-0 2 27304
2 62719 014.6913 034.5207 5050451 025.0371 181.3793 00.03608008    07

# Worst residual: 10.98 km
# MJD 60874.000000 (2025 Jul 18  0:00)
2025-010D = NORAD 62719 = Falcon 9-427 Stage 2
1 62719U 25010D   25199.49919926  .00000000  00000-0  00000-0 2 27305
2 62719 014.7878 034.7203 5033081 024.9993 193.9254 00.03602530    09

# Worst residual: 14.57 km
# MJD 60875.000000 (2025 Jul 19  0:00)
2025-010D = NORAD 62719 = Falcon 9-427 Stage 2
1 62719U 25010D   25200.49919926  .00000000  00000-0  00000-0 2 27308
2 62719 014.8880 034.9698 5006811 024.9356 206.3237 00.03595792    08

# Worst residual: 17.30 km
# MJD 60876.000000 (2025 Jul 20  0:00)
2025-010D = NORAD 62719 = Falcon 9-427 Stage 2
1 62719U 25010D   25201.49919926  .00000000  00000-0  00000-0 2 27309
2 62719 014.9868 035.2623 4970299 024.8195 218.6145 00.03587789    07

# Worst residual: 19.14 km
# MJD 60877.000000 (2025 Jul 21  0:00)
2025-010D = NORAD 62719 = Falcon 9-427 Stage 2
1 62719U 25010D   25202.49919926  .00000000  00000-0  00000-0 2 27300
2 62719 015.0759 035.5759 4925278 024.6453 230.8383 00.03579330    06

# Worst residual: 19.97 km
# MJD 60878.000000 (2025 Jul 22  0:00)
2025-010D = NORAD 62719 = Falcon 9-427 Stage 2
1 62719U 25010D   25203.49919926  .00000000  00000-0  00000-0 2 27301
2 62719 015.1496 035.8872 4873918 024.4133 243.0375 00.03571090    02

# Worst residual: 19.87 km
# MJD 60879.000000 (2025 Jul 23  0:00)
2025-010D = NORAD 62719 = Falcon 9-427 Stage 2
1 62719U 25010D   25204.49919926  .00000000  00000-0  00000-0 2 27302
2 62719 015.2048 036.1724 4819197 024.1344 255.2501 00.03563854    01

# Worst residual: 18.87 km
# MJD 60880.000000 (2025 Jul 24  0:00)
2025-010D = NORAD 62719 = Falcon 9-427 Stage 2
1 62719U 25010D   25205.49919926  .00000000  00000-0  00000-0 2 27303
2 62719 015.2410 036.4113 4764543 023.8310 267.5046 00.03558560    00

# Worst residual: 17.81 km
# MJD 60881.000000 (2025 Jul 25  0:00)
2025-010D = NORAD 62719 = Falcon 9-427 Stage 2
1 62719U 25010D   25206.49919926  .00000000  00000-0  00000-0 2 27304
2 62719 015.2607 036.5902 4713268 023.5363 279.8175 00.03556308    05

# Worst residual: 17.94 km
# MJD 60882.000000 (2025 Jul 26  0:00)
2025-010D = NORAD 62719 = Falcon 9-427 Stage 2
1 62719U 25010D   25207.49919926  .00000000  00000-0  00000-0 2 27305
2 62719 015.2683 036.7038 4667902 023.2911 292.1949 00.03558317    09

# Worst residual: 16.89 km
# MJD 60883.000000 (2025 Jul 27  0:00)
2025-010D = NORAD 62719 = Falcon 9-427 Stage 2
1 62719U 25010D   25208.49919926  .00000000  00000-0  00000-0 2 27306
2 62719 015.2693 036.7554 4629571 023.1354 304.6397 00.03565754    02

# Worst residual: 14.70 km
# MJD 60884.000000 (2025 Jul 28  0:00)
2025-010D = NORAD 62719 = Falcon 9-427 Stage 2
1 62719U 25010D   25209.49919926  .00000000  00000-0  00000-0 2 27307
2 62719 015.2694 036.7571 4597706 023.0936 317.1637 00.03579304    03

# Worst residual: 11.40 km
# MJD 60885.000000 (2025 Jul 29  0:00)
2025-010D = NORAD 62719 = Falcon 9-427 Stage 2
1 62719U 25010D   25210.49919926  .00000000  00000-0  00000-0 2 27309
2 62719 015.2733 036.7289 4570513 023.1515 329.8000 00.03598296    09
